<?xml version="1.0" encoding="UTF-8"?>
<ndm xmlns:xsi="http://www.w3.org/2001/XMLSchema-instance" xsi:noNamespaceSchemaLocation="https://sanaregistry.org/r/ndmxml_unqualified/ndmxml-2.0.0-master-2.0.xsd">
<omm id="CCSDS_OMM_VERS" version="2.0">
<header><CREATION_DATE/><ORIGINATOR/></header><body><segment><metadata><OBJECT_NAME>ONEWEB-0716</OBJECT_NAME><OBJECT_ID>2023-004AP</OBJECT_ID><CENTER_NAME>EARTH</CENTER_NAME><REF_FRAME>TEME</REF_FRAME><TIME_SYSTEM>UTC</TIME_SYSTEM><MEAN_ELEMENT_THEORY>SGP4</MEAN_ELEMENT_THEORY></metadata><data><meanElements><EPOCH>2025-05-15T05:10:25.820832</EPOCH><MEAN_MOTION>13.17648917</MEAN_MOTION><ECCENTRICITY>.0001832</ECCENTRICITY><INCLINATION>87.9052</INCLINATION><RA_OF_ASC_NODE>85.1258</RA_OF_ASC_NODE><ARG_OF_PERICENTER>78.8620</ARG_OF_PERICENTER><MEAN_ANOMALY>281.2717</MEAN_ANOMALY></meanElements><tleParameters><EPHEMERIS_TYPE>0</EPHEMERIS_TYPE><CLASSIFICATION_TYPE>U</CLASSIFICATION_TYPE><NORAD_CAT_ID>55177</NORAD_CAT_ID><ELEMENT_SET_NO>999</ELEMENT_SET_NO><REV_AT_EPOCH>11517</REV_AT_EPOCH><BSTAR>-.19754E-3</BSTAR><MEAN_MOTION_DOT>-.64E-6</MEAN_MOTION_DOT><MEAN_MOTION_DDOT>0</MEAN_MOTION_DDOT></tleParameters></data></segment></body></omm>
<omm id="CCSDS_OMM_VERS" version="2.0">
<header><CREATION_DATE/><ORIGINATOR/></header><body><segment><metadata><OBJECT_NAME>ONEWEB-0717</OBJECT_NAME><OBJECT_ID>2023-004AQ</OBJECT_ID><CENTER_NAME>EARTH</CENTER_NAME><REF_FRAME>TEME</REF_FRAME><TIME_SYSTEM>UTC</TIME_SYSTEM><MEAN_ELEMENT_THEORY>SGP4</MEAN_ELEMENT_THEORY></metadata><data><meanElements><EPOCH>2025-05-14T19:39:21.455712</EPOCH><MEAN_MOTION>13.17648693</MEAN_MOTION><ECCENTRICITY>.0002846</ECCENTRICITY><INCLINATION>87.9050</INCLINATION><RA_OF_ASC_NODE>85.1640</RA_OF_ASC_NODE><ARG_OF_PERICENTER>81.8178</ARG_OF_PERICENTER><MEAN_ANOMALY>278.3276</MEAN_ANOMALY></meanElements><tleParameters><EPHEMERIS_TYPE>0</EPHEMERIS_TYPE><CLASSIFICATION_TYPE>U</CLASSIFICATION_TYPE><NORAD_CAT_ID>55178</NORAD_CAT_ID><ELEMENT_SET_NO>999</ELEMENT_SET_NO><REV_AT_EPOCH>11517</REV_AT_EPOCH><BSTAR>-.74989E-3</BSTAR><MEAN_MOTION_DOT>-.278E-5</MEAN_MOTION_DOT><MEAN_MOTION_DDOT>0</MEAN_MOTION_DDOT></tleParameters></data></segment></body></omm>
<omm id="CCSDS_OMM_VERS" version="2.0">
<header><CREATION_DATE/><ORIGINATOR/></header><body><segment><metadata><OBJECT_NAME>ONEWEB-0719</OBJECT_NAME><OBJECT_ID>2023-004AR</OBJECT_ID><CENTER_NAME>EARTH</CENTER_NAME><REF_FRAME>TEME</REF_FRAME><TIME_SYSTEM>UTC</TIME_SYSTEM><MEAN_ELEMENT_THEORY>SGP4</MEAN_ELEMENT_THEORY></metadata><data><meanElements><EPOCH>2025-05-15T03:11:19.369248</EPOCH><MEAN_MOTION>13.17651632</MEAN_MOTION><ECCENTRICITY>.000194</ECCENTRICITY><INCLINATION>87.9051</INCLINATION><RA_OF_ASC_NODE>85.0856</RA_OF_ASC_NODE><ARG_OF_PERICENTER>75.5702</ARG_OF_PERICENTER><MEAN_ANOMALY>284.5644</MEAN_ANOMALY></meanElements><tleParameters><EPHEMERIS_TYPE>0</EPHEMERIS_TYPE><CLASSIFICATION_TYPE>U</CLASSIFICATION_TYPE><NORAD_CAT_ID>55179</NORAD_CAT_ID><ELEMENT_SET_NO>999</ELEMENT_SET_NO><REV_AT_EPOCH>11516</REV_AT_EPOCH><BSTAR>-.30906E-4</BSTAR><MEAN_MOTION_DOT>.1E-7</MEAN_MOTION_DOT><MEAN_MOTION_DDOT>0</MEAN_MOTION_DDOT></tleParameters></data></segment></body></omm>
<omm id="CCSDS_OMM_VERS" version="2.0">
<header><CREATION_DATE/><ORIGINATOR/></header><body><segment><metadata><OBJECT_NAME>ONEWEB-0530</OBJECT_NAME><OBJECT_ID>2023-029A</OBJECT_ID><CENTER_NAME>EARTH</CENTER_NAME><REF_FRAME>TEME</REF_FRAME><TIME_SYSTEM>UTC</TIME_SYSTEM><MEAN_ELEMENT_THEORY>SGP4</MEAN_ELEMENT_THEORY></metadata><data><meanElements><EPOCH>2025-05-14T14:38:02.614272</EPOCH><MEAN_MOTION>13.20770579</MEAN_MOTION><ECCENTRICITY>.0002279</ECCENTRICITY><INCLINATION>87.9282</INCLINATION><RA_OF_ASC_NODE>353.8534</RA_OF_ASC_NODE><ARG_OF_PERICENTER>75.8075</ARG_OF_PERICENTER><MEAN_ANOMALY>284.3312</MEAN_ANOMALY></meanElements><tleParameters><EPHEMERIS_TYPE>0</EPHEMERIS_TYPE><CLASSIFICATION_TYPE>U</CLASSIFICATION_TYPE><NORAD_CAT_ID>55796</NORAD_CAT_ID><ELEMENT_SET_NO>999</ELEMENT_SET_NO><REV_AT_EPOCH>10853</REV_AT_EPOCH><BSTAR>.4601E-3</BSTAR><MEAN_MOTION_DOT>.2E-5</MEAN_MOTION_DOT><MEAN_MOTION_DDOT>0</MEAN_MOTION_DDOT></tleParameters></data></segment></body></omm>
<omm id="CCSDS_OMM_VERS" version="2.0">
<header><CREATION_DATE/><ORIGINATOR/></header><body><segment><metadata><OBJECT_NAME>ONEWEB-0534</OBJECT_NAME><OBJECT_ID>2023-029B</OBJECT_ID><CENTER_NAME>EARTH</CENTER_NAME><REF_FRAME>TEME</REF_FRAME><TIME_SYSTEM>UTC</TIME_SYSTEM><MEAN_ELEMENT_THEORY>SGP4</MEAN_ELEMENT_THEORY></metadata><data><meanElements><EPOCH>2025-05-14T21:36:11.203488</EPOCH><MEAN_MOTION>13.20772709</MEAN_MOTION><ECCENTRICITY>.0001695</ECCENTRICITY><INCLINATION>87.9282</INCLINATION><RA_OF_ASC_NODE>353.8032</RA_OF_ASC_NODE><ARG_OF_PERICENTER>82.0444</ARG_OF_PERICENTER><MEAN_ANOMALY>278.0882</MEAN_ANOMALY></meanElements><tleParameters><EPHEMERIS_TYPE>0</EPHEMERIS_TYPE><CLASSIFICATION_TYPE>U</CLASSIFICATION_TYPE><NORAD_CAT_ID>55797</NORAD_CAT_ID><ELEMENT_SET_NO>999</ELEMENT_SET_NO><REV_AT_EPOCH>10857</REV_AT_EPOCH><BSTAR>-.47175E-4</BSTAR><MEAN_MOTION_DOT>-.6E-7</MEAN_MOTION_DOT><MEAN_MOTION_DDOT>0</MEAN_MOTION_DDOT></tleParameters></data></segment></body></omm>
<omm id="CCSDS_OMM_VERS" version="2.0">
<header><CREATION_DATE/><ORIGINATOR/></header><body><segment><metadata><OBJECT_NAME>ONEWEB-0556</OBJECT_NAME><OBJECT_ID>2023-029C</OBJECT_ID><CENTER_NAME>EARTH</CENTER_NAME><REF_FRAME>TEME</REF_FRAME><TIME_SYSTEM>UTC</TIME_SYSTEM><MEAN_ELEMENT_THEORY>SGP4</MEAN_ELEMENT_THEORY></metadata><data><meanElements><EPOCH>2025-05-14T21:45:16.637184</EPOCH><MEAN_MOTION>13.20772301</MEAN_MOTION><ECCENTRICITY>.000185</ECCENTRICITY><INCLINATION>87.9281</INCLINATION><RA_OF_ASC_NODE>353.7941</RA_OF_ASC_NODE><ARG_OF_PERICENTER>58.9015</ARG_OF_PERICENTER><MEAN_ANOMALY>301.2300</MEAN_ANOMALY></meanElements><tleParameters><EPHEMERIS_TYPE>0</EPHEMERIS_TYPE><CLASSIFICATION_TYPE>U</CLASSIFICATION_TYPE><NORAD_CAT_ID>55798</NORAD_CAT_ID><ELEMENT_SET_NO>999</ELEMENT_SET_NO><REV_AT_EPOCH>10857</REV_AT_EPOCH><BSTAR>-.13717E-3</BSTAR><MEAN_MOTION_DOT>-.43E-6</MEAN_MOTION_DOT><MEAN_MOTION_DDOT>0</MEAN_MOTION_DDOT></tleParameters></data></segment></body></omm>
<omm id="CCSDS_OMM_VERS" version="2.0">
<header><CREATION_DATE/><ORIGINATOR/></header><body><segment><metadata><OBJECT_NAME>ONEWEB-0562</OBJECT_NAME><OBJECT_ID>2023-029D</OBJECT_ID><CENTER_NAME>EARTH</CENTER_NAME><REF_FRAME>TEME</REF_FRAME><TIME_SYSTEM>UTC</TIME_SYSTEM><MEAN_ELEMENT_THEORY>SGP4</MEAN_ELEMENT_THEORY></metadata><data><meanElements><EPOCH>2025-05-14T21:27:06.486048</EPOCH><MEAN_MOTION>13.20772799</MEAN_MOTION><ECCENTRICITY>.0002467</ECCENTRICITY><INCLINATION>87.9283</INCLINATION><RA_OF_ASC_NODE>353.7894</RA_OF_ASC_NODE><ARG_OF_PERICENTER>65.0325</ARG_OF_PERICENTER><MEAN_ANOMALY>295.1064</MEAN_ANOMALY></meanElements><tleParameters><EPHEMERIS_TYPE>0</EPHEMERIS_TYPE><CLASSIFICATION_TYPE>U</CLASSIFICATION_TYPE><NORAD_CAT_ID>55799</NORAD_CAT_ID><ELEMENT_SET_NO>999</ELEMENT_SET_NO><REV_AT_EPOCH>10857</REV_AT_EPOCH><BSTAR>.6092E-4</BSTAR><MEAN_MOTION_DOT>.38E-6</MEAN_MOTION_DOT><MEAN_MOTION_DDOT>0</MEAN_MOTION_DDOT></tleParameters></data></segment></body></omm>
<omm id="CCSDS_OMM_VERS" version="2.0">
<header><CREATION_DATE/><ORIGINATOR/></header><body><segment><metadata><OBJECT_NAME>ONEWEB-0563</OBJECT_NAME><OBJECT_ID>2023-029E</OBJECT_ID><CENTER_NAME>EARTH</CENTER_NAME><REF_FRAME>TEME</REF_FRAME><TIME_SYSTEM>UTC</TIME_SYSTEM><MEAN_ELEMENT_THEORY>SGP4</MEAN_ELEMENT_THEORY></metadata><data><meanElements><EPOCH>2025-05-14T15:50:44.494944</EPOCH><MEAN_MOTION>13.20772823</MEAN_MOTION><ECCENTRICITY>.0001495</ECCENTRICITY><INCLINATION>87.9282</INCLINATION><RA_OF_ASC_NODE>353.8504</RA_OF_ASC_NODE><ARG_OF_PERICENTER>83.0245</ARG_OF_PERICENTER><MEAN_ANOMALY>277.1058</MEAN_ANOMALY></meanElements><tleParameters><EPHEMERIS_TYPE>0</EPHEMERIS_TYPE><CLASSIFICATION_TYPE>U</CLASSIFICATION_TYPE><NORAD_CAT_ID>55800</NORAD_CAT_ID><ELEMENT_SET_NO>999</ELEMENT_SET_NO><REV_AT_EPOCH>10853</REV_AT_EPOCH><BSTAR>-.41694E-4</BSTAR><MEAN_MOTION_DOT>-.4E-7</MEAN_MOTION_DOT><MEAN_MOTION_DDOT>0</MEAN_MOTION_DDOT></tleParameters></data></segment></body></omm>

</ndm>
