ONEWEB-0716             
1 55177U 23004AP  25135.21557663 -.00000064  00000+0 -19754-3 0  9995
2 55177  87.9052  85.1258 0001832  78.8620 281.2717 13.17648917115172
ONEWEB-0717             
1 55178U 23004AQ  25134.81899833 -.00000278  00000+0 -74989-3 0  9997
2 55178  87.9050  85.1640 0002846  81.8178 278.3276 13.17648693115172
ONEWEB-0719             
1 55179U 23004AR  25135.13286307  .00000001  00000+0 -30906-4 0  9995
2 55179  87.9051  85.0856 0001940  75.5702 284.5644 13.17651632115163
ONEWEB-0530             
1 55796U 23029A   25134.60975248  .00000200  00000+0  46010-3 0  9999
2 55796  87.9282 353.8534 0002279  75.8075 284.3312 13.20770579108534
ONEWEB-0534             
1 55797U 23029B   25134.90012967 -.00000006  00000+0 -47175-4 0  9993
2 55797  87.9282 353.8032 0001695  82.0444 278.0882 13.20772709108572
ONEWEB-0556             
1 55798U 23029C   25134.90644256 -.00000043  00000+0 -13717-3 0  9991
2 55798  87.9281 353.7941 0001850  58.9015 301.2300 13.20772301108571
ONEWEB-0562             
1 55799U 23029D   25134.89382507  .00000038  00000+0  60920-4 0  9999
2 55799  87.9283 353.7894 0002467  65.0325 295.1064 13.20772799108578
ONEWEB-0563             
1 55800U 23029E   25134.66023721 -.00000004  00000+0 -41694-4 0  9999
2 55800  87.9282 353.8504 0001495  83.0245 277.1058 13.20772823108537
